{
  "norad_id": 32275,
  "name": "COSMOS 2433 [GLONASS-M]",
  "history": [
    {
      "epoch": "2026-03-28T04:52:50.813760",
      "apogee_km": 19132.584005287048,
      "perigee_km": 19126.890647737368,
      "latitude_deg": -63.678270395883715,
      "longitude_deg": -52.97687359992415,
      "semi_major_axis_km": 25507.874326512207,
      "eccentricity": 0.0001116,
      "inclination_deg": 65.6216,
      "raan_deg": 318.6607,
      "arg_perigee_deg": 260.7324,
      "mean_anomaly_deg": 99.3104,
      "mean_motion_rev_day": 2.13103881
    }
  ]
}